{
  "norad_id": 22314,
  "name": "TDRS 6",
  "history": [
    {
      "epoch": "2026-03-28T21:19:27.384960",
      "apogee_km": 35808.39575881403,
      "perigee_km": 35765.86786868848,
      "latitude_deg": -4.200828822899036,
      "longitude_deg": 96.69709439994767,
      "semi_major_axis_km": 42165.26881375126,
      "eccentricity": 0.0005043,
      "inclination_deg": 14.1817,
      "raan_deg": 357.6547,
      "arg_perigee_deg": 185.4414,
      "mean_anomaly_deg": 277.229,
      "mean_motion_rev_day": 1.0026987
    }
  ]
}